NORAD_CAT_ID,OBJECT_NAME,OBJECT_TYPE,EPOCH,MEAN_MOTION,ECCENTRICITY,INCLINATION,RA_OF_ASC_NODE,ARG_OF_PERICENTER,MEAN_ANOMALY,BSTAR,MEAN_MOTION_DOT,MEAN_MOTION_DDOT,TLE_LINE0,TLE_LINE1,TLE_LINE2,SEMIMAJOR_AXIS,PERIOD,APOGEE,PERIGEE,DECAYED
51968.0,STARLINK-3681,PAYLOAD,2022-07-28 06:00:00,15.08846073,0.0002174999999999,53.2163,196.7898,49.7702,194.724,-0.0025618999999999,-0.00040838,0.0,0 STARLINK-3681,1 51968U 22025N   22209.25001157 -.00040838  00000-0 -25619-2 0  9996,2 51968  53.2163 196.7898 0002175  49.7702 194.7240 15.08846073 22961,6917.861999999999,95.437,541.231,538.222,0.0
51968.0,STARLINK-3681,PAYLOAD,2022-07-28 14:00:01,15.08842413,0.000212,53.216,195.2929,49.0568,207.0175,-0.0021065999999999,-0.00033662,0.0,0 STARLINK-3681,1 51968U 22025N   22209.58334491 -.00033662  00000-0 -21066-2 0  9991,2 51968  53.2160 195.2929 0002120  49.0568 207.0175 15.08842413  1304,6917.873000000001,95.437,541.205,538.271,0.0
51968.0,STARLINK-3681,PAYLOAD,2022-07-28 22:00:00,15.08816554,0.0002028,53.2162,193.7954,55.1251,212.5347,0.0018614,0.00029442,0.0,0 STARLINK-3681,1 51968U 22025N   22209.91667824  .00029442  00000-0  18614-2 0  9991,2 51968  53.2162 193.7954 0002028  55.1251 212.5347 15.08816554 23067,6917.9519999999975,95.439,541.22,538.414,0.0
51968.0,STARLINK-3681,PAYLOAD,2022-07-29 14:00:01,15.08844997,0.0002164,53.216,190.804,50.5338,240.2661,-0.0023105,-0.00036878,0.0,0 STARLINK-3681,1 51968U 22025N   22210.58334491 -.00036878  00000-0 -23105-2 0  9991,2 51968  53.2160 190.8040 0002164  50.5338 240.2661 15.08844997  1307,6917.865,95.437,541.227,538.2330000000002,0.0
51968.0,STARLINK-3681,PAYLOAD,2022-07-29 22:00:00,15.08818905,0.0002109,53.2162,189.3065,56.324,246.0609,0.0016995,0.00026848,0.0,0 STARLINK-3681,1 51968U 22025N   22210.91667824  .00026848  00000-0  16995-2 0  9990,2 51968  53.2162 189.3065 0002109  56.3240 246.0609 15.08818905  1300,6917.945,95.439,541.269,538.351,0.0
51968.0,STARLINK-3681,PAYLOAD,2022-07-30 06:00:00,15.08827157,0.0002307,53.2163,187.812,51.9602,262.0091,-3.072e-05,-7.77e-06,0.0,0 STARLINK-3681,1 51968U 22025N   22211.25001157 -.00000777  00000-0 -30720-4 0  9998,2 51968  53.2163 187.8120 0002307  51.9602 262.0091 15.08827157 23260,6917.92,95.438,541.381,538.189,0.0
51968.0,STARLINK-3681,PAYLOAD,2022-07-30 14:00:01,15.08850377,0.0002254,53.2163,186.3149,51.7519,273.7929,-0.0023421999999999,-0.00037383,0.0,0 STARLINK-3681,1 51968U 22025N   22211.58334491 -.00037383  00000-0 -23422-2 0  9996,2 51968  53.2163 186.3149 0002254  51.7519 273.7929 15.08850377  1301,6917.849,95.437,541.273,538.154,0.0
51968.0,STARLINK-3681,PAYLOAD,2022-07-30 22:00:00,15.08827644,0.0002222,53.2167,184.8176,57.225,279.9108,0.0015606,0.00024628,0.0,0 STARLINK-3681,1 51968U 22025N   22211.91667824  .00024628  00000-0  15606-2 0  9993,2 51968  53.2167 184.8176 0002222  57.2250 279.9108 15.08827644  1304,6917.918000000002,95.438,541.32,538.246,0.0
51968.0,STARLINK-3681,PAYLOAD,2022-07-31 06:00:02,15.08832563,0.0002426,53.2168,183.3231,52.9369,295.8557,0.00027702,4.122e-05,0.0,0 STARLINK-3681,1 51968U 22025N   22212.25002315  .00004122  00000-0  27702-3 0  9997,2 51968  53.2168 183.3231 0002426  52.9369 295.8557 15.08832563 23417,6917.903,95.438,541.446,538.09,0.0
51968.0,STARLINK-3681,PAYLOAD,2022-07-31 14:00:01,15.08857395,0.0002362,53.2169,181.8258,53.2573,307.0571,-0.0022073,-0.00035264,0.0,0 STARLINK-3681,1 51968U 22025N   22212.58334491 -.00035264  00000-0 -22073-2 0  9994,2 51968  53.2169 181.8258 0002362  53.2573 307.0571 15.08857395  1317,6917.8269999999975,95.436,541.326,538.058,0.0
51968.0,STARLINK-3681,PAYLOAD,2022-07-31 22:00:00,15.08840096,0.0002336999999999,53.2173,180.3287,58.1327,313.7811,0.0012779999999999,0.0002011,0.0,0 STARLINK-3681,1 51968U 22025N   22212.91667824  .00020110  00000-0  12780-2 0  9996,2 51968  53.2173 180.3287 0002337  58.1327 313.7811 15.08840096  1301,6917.88,95.438,541.362,538.128,0.0
51968.0,STARLINK-3681,PAYLOAD,2022-08-01 14:00:01,15.08867069,0.0002455,53.2176,177.3368,55.2628,339.8568,-0.0019196999999999,-0.00030735,0.0,0 STARLINK-3681,1 51968U 22025N   22213.58334491 -.00030735  00000-0 -19197-2 0  9996,2 51968  53.2176 177.3368 0002455  55.2628 339.8568 15.08867069 23618,6917.7980000000025,95.436,541.361,537.964,0.0
51968.0,STARLINK-3681,PAYLOAD,2022-08-01 22:00:00,15.08857122,0.0002411999999999,53.2179,175.8399,59.2489,347.4811,0.0006501,0.00010078,0.0,0 STARLINK-3681,1 51968U 22025N   22213.91667824  .00010078  00000-0  65010-3 0  9994,2 51968  53.2179 175.8399 0002412  59.2489 347.4811 15.08857122  1307,6917.828,95.436,541.362,538.024,0.0
51968.0,STARLINK-3681,PAYLOAD,2022-08-02 06:00:02,15.08849318,0.000254,53.2179,174.3452,54.6334,3.7837,-0.001368,-0.00022001,0.0,0 STARLINK-3681,1 51968U 22025N   22214.25002315 -.00022001  00000-0 -13680-2 0  9996,2 51968  53.2179 174.3452 0002540  54.6334   3.7837 15.08849318 23718,6917.852,95.437,541.474,537.96,0.0
51968.0,STARLINK-3681,PAYLOAD,2022-08-02 14:00:01,15.08847646,0.0002408,53.2179,172.8477,56.0157,13.9333,-0.0017060999999999,-0.00027345,0.0,0 STARLINK-3681,1 51968U 22025N   22214.58334491 -.00027345  00000-0 -17061-2 0  9998,2 51968  53.2179 172.8477 0002408  56.0157  13.9333 15.08847646  1307,6917.857,95.437,541.388,538.056,0.0
51968.0,STARLINK-3681,PAYLOAD,2022-08-03 06:00:00,15.08830869,0.0002529999999999,53.218,169.8564,55.6993,37.4456,0.0013915,0.00021922,0.0,0 STARLINK-3681,1 51968U 22025N   22215.25001157  .00021922  00000-0  13915-2 0  9990,2 51968  53.2180 169.8564 0002530  55.6993  37.4456 15.08830869 23873,6917.908,95.438,541.524,538.023,0.0
51968.0,STARLINK-3681,PAYLOAD,2022-08-03 14:00:01,15.08856978,0.0002404,53.2179,168.3588,58.4712,46.2687,-0.0012554999999999,-0.00020224,0.0,0 STARLINK-3681,1 51968U 22025N   22215.58334491 -.00020224  00000-0 -12555-2 0  9991,2 51968  53.2179 168.3588 0002404  58.4712  46.2687 15.08856978  1308,6917.828,95.436,541.357,538.03,0.0
51968.0,STARLINK-3681,PAYLOAD,2022-08-03 22:00:01,15.08867444,0.0002348,53.2179,166.8622,61.5142,54.8912,-0.0029822,-0.00047475,0.0,0 STARLINK-3681,1 51968U 22025N   22215.91668981 -.00047475  00000-0 -29822-2 0  9994,2 51968  53.2179 166.8622 0002348  61.5142  54.8912 15.08867444  1305,6917.797,95.436,541.286,538.0369999999998,0.0
51968.0,STARLINK-3681,PAYLOAD,2022-08-04 06:00:00,15.08811549,0.0002432,53.2177,165.3676,56.1538,71.8011,0.0018678,0.00029541,0.0,0 STARLINK-3681,1 51968U 22025N   22216.25001157  .00029541  00000-0  18678-2 0  9997,2 51968  53.2177 165.3676 0002432  56.1538  71.8011 15.08811549 24027,6917.967,95.439,541.515,538.15,0.0
51968.0,STARLINK-3681,PAYLOAD,2022-08-04 14:00:01,15.08835734,0.0002316,53.2174,163.8699,59.8571,79.6724,-0.00086324,-0.00013999,0.0,0 STARLINK-3681,1 51968U 22025N   22216.58334491 -.00013999  00000-0 -86324-3 0  9999,2 51968  53.2174 163.8699 0002316  59.8571  79.6724 15.08835734  1305,6917.893,95.438,541.361,538.156,0.0
51968.0,STARLINK-3681,PAYLOAD,2022-08-04 22:00:00,15.08846543,0.0002333,53.2174,162.3735,63.2912,87.8199,-0.00049285,-8.125e-05,0.0,0 STARLINK-3681,1 51968U 22025N   22216.91667824 -.00008125  00000-0 -49285-3 0  9995,2 51968  53.2174 162.3735 0002333  63.2912  87.8199 15.08846543  1304,6917.86,95.437,541.339,538.111,0.0
51968.0,STARLINK-3681,PAYLOAD,2022-08-05 14:00:01,15.08846495,0.0002331999999999,53.2167,159.3808,62.4092,111.9616,-0.00028687,-4.852e-05,0.0,0 STARLINK-3681,1 51968U 22025N   22217.58335648 -.00004852  00000-0 -28687-3 0  9991,2 51968  53.2167 159.3808 0002332  62.4092 111.9616 15.08846495  1301,6917.861,95.437,541.339,538.112,0.0
51968.0,STARLINK-3681,PAYLOAD,2022-08-05 22:00:00,15.08868974,0.0002333,53.2168,157.8847,64.9527,120.953,-0.0034571,-0.00054935,0.0,0 STARLINK-3681,1 51968U 22025N   22217.91667824 -.00054935  00000-0 -34571-2 0  9997,2 51968  53.2168 157.8847 0002333  64.9527 120.9530 15.08868974  1300,6917.792,95.436,541.271,538.043,0.0
51968.0,STARLINK-3681,PAYLOAD,2022-08-06 03:32:19,15.08848908,0.0002522,53.2182,156.8491,63.1007,297.0243,-2.7881e-05,-7.32e-06,0.0,0 STARLINK-3681,1 51968U 22025N   22218.14744963 -.00000732  00000-0 -27881-4 0  9997,2 51968  53.2182 156.8491 0002522  63.1007 297.0243 15.08848908 24301,6917.853,95.437,541.4630000000002,537.9730000000002,0.0
51968.0,STARLINK-3681,PAYLOAD,2022-08-06 13:04:39,15.08817414,0.0002479,53.2185,155.0647,63.9402,296.1845,0.00018726,2.691e-05,0.0,0 STARLINK-3681,1 51968U 22025N   22218.54490336  .00002691  00000-0  18726-3 0  9994,2 51968  53.2185 155.0647 0002479  63.9402 296.1845 15.08817414 23266,6917.949000000001,95.439,541.529,538.099,0.0
51968.0,STARLINK-3681,PAYLOAD,2022-08-06 14:00:01,15.08829615,0.0002296999999999,53.2164,154.8917,62.9534,146.1409,0.00017318,2.468e-05,0.0,0 STARLINK-3681,1 51968U 22025N   22218.58334491  .00002468  00000-0  17318-3 0  9995,2 51968  53.2164 154.8917 0002297  62.9534 146.1409 15.08829615 24372,6917.9119999999975,95.438,541.366,538.188,0.0
51968.0,STARLINK-3681,PAYLOAD,2022-08-06 22:00:00,15.08852024,0.0002366,53.2165,153.3956,65.5109,155.1649,-0.00083463,-0.00013552,0.0,0 STARLINK-3681,1 51968U 22025N   22218.91667824 -.00013552  00000-0 -83463-3 0  9993,2 51968  53.2165 153.3956 0002366  65.5109 155.1649 15.08852024  1308,6917.844,95.437,541.345,538.072,0.0
51968.0,STARLINK-3681,PAYLOAD,2022-08-07 14:00:01,15.08823198,0.0002265,53.2166,150.4025,63.2844,180.5994,0.00043176,6.587e-05,0.0,0 STARLINK-3681,1 51968U 22025N   22219.58334491  .00006587  00000-0  43176-3 0  9993,2 51968  53.2166 150.4025 0002265  63.2844 180.5994 15.08823198  1308,6917.932,95.439,541.364,538.23,0.0
51968.0,STARLINK-3681,PAYLOAD,2022-08-07 22:00:00,15.08847695,0.0002349,53.2167,148.9065,65.2287,190.229,-0.00081783,-0.00013284,0.0,0 STARLINK-3681,1 51968U 22025N   22219.91667824 -.00013284  00000-0 -81783-3 0  9999,2 51968  53.2167 148.9065 0002349  65.2287 190.2290 15.08847695 24570,6917.857,95.437,541.347,538.097,0.0
